[{"OBJECT_NAME":"COSMOS 2502","OBJECT_ID":"2014-086A","EPOCH":"2026-03-09T23:20:55.492800","MEAN_MOTION":13.97809057,"ECCENTRICITY":0.0007913,"INCLINATION":67.151,"RA_OF_ASC_NODE":248.8108,"ARG_OF_PERICENTER":280.0758,"MEAN_ANOMALY":79.9434,"EPHEMERIS_TYPE":0,"CLASSIFICATION_TYPE":"U","NORAD_CAT_ID":40358,"ELEMENT_SET_NO":999,"REV_AT_EPOCH":57008,"BSTAR":4.1810399e-5,"MEAN_MOTION_DOT":-1.6e-7,"MEAN_MOTION_DDOT":0},{"OBJECT_NAME":"THOR ABLESTAR DEB","OBJECT_ID":"1961-015MS","EPOCH":"2026-03-09T04:02:40.440768","MEAN_MOTION":13.97155112,"ECCENTRICITY":0.00261332,"INCLINATION":65.9033,"RA_OF_ASC_NODE":130.2466,"ARG_OF_PERICENTER":217.3967,"MEAN_ANOMALY":142.529,"EPHEMERIS_TYPE":0,"CLASSIFICATION_TYPE":"U","NORAD_CAT_ID":48814,"ELEMENT_SET_NO":999,"REV_AT_EPOCH":62159,"BSTAR":0.0024407654,"MEAN_MOTION_DOT":3.343e-5,"MEAN_MOTION_DDOT":0}]
